{
    "links": {
        "self": "http://www.neowsapp.com/rest/v1/neo/3545554?api_key=iIulBulltgU6a56xZRHN4H3l9WmuAYTsLGpBGhQ2"
    },
    "id": "3545554",
    "neo_reference_id": "3545554",
    "name": "(2010 RT30)",
    "designation": "2010 RT30",
    "nasa_jpl_url": "http://ssd.jpl.nasa.gov/sbdb.cgi?sstr=3545554",
    "absolute_magnitude_h": 23.3,
    "estimated_diameter": {
        "kilometers": {
            "estimated_diameter_min": 0.058150704,
            "estimated_diameter_max": 0.130028927
        },
        "meters": {
            "estimated_diameter_min": 58.1507039646,
            "estimated_diameter_max": 130.0289270043
        },
        "miles": {
            "estimated_diameter_min": 0.0361331611,
            "estimated_diameter_max": 0.0807962044
        },
        "feet": {
            "estimated_diameter_min": 190.7831555951,
            "estimated_diameter_max": 426.6041048727
        }
    },
    "is_potentially_hazardous_asteroid": false,
    "close_approach_data": [
        {
            "close_approach_date": "1978-09-10",
            "close_approach_date_full": "1978-Sep-10 22:01",
            "epoch_date_close_approach": 274312860000,
            "relative_velocity": {
                "kilometers_per_second": "12.2846710427",
                "kilometers_per_hour": "44224.8157538726",
                "miles_per_hour": "27479.5806555105"
            },
            "miss_distance": {
                "astronomical": "0.3334982245",
                "lunar": "129.7308093305",
                "kilometers": "49890624.033981815",
                "miles": "31000596.257966447"
            },
            "orbiting_body": "Earth"
        },
        {
            "close_approach_date": "1985-11-09",
            "close_approach_date_full": "1985-Nov-09 15:40",
            "epoch_date_close_approach": 500398800000,
            "relative_velocity": {
                "kilometers_per_second": "15.8701570402",
                "kilometers_per_hour": "57132.5653448838",
                "miles_per_hour": "35499.9542833252"
            },
            "miss_distance": {
                "astronomical": "0.4365998112",
                "lunar": "169.8373265568",
                "kilometers": "65314401.797922144",
                "miles": "40584487.3495438272"
            },
            "orbiting_body": "Earth"
        },
        {
            "close_approach_date": "2010-09-30",
            "close_approach_date_full": "2010-Sep-30 04:35",
            "epoch_date_close_approach": 1285821300000,
            "relative_velocity": {
                "kilometers_per_second": "6.5142970536",
                "kilometers_per_hour": "23451.4693929891",
                "miles_per_hour": "14571.8310792159"
            },
            "miss_distance": {
                "astronomical": "0.1479727293",
                "lunar": "57.5613916977",
                "kilometers": "22136405.121366591",
                "miles": "13754924.3181013158"
            },
            "orbiting_body": "Earth"
        }
    ],
    "orbital_data": {
        "orbit_id": "9",
        "orbit_determination_date": "2017-04-06 08:56:51",
        "first_observation_date": "2010-09-04",
        "last_observation_date": "2010-10-29",
        "data_arc_in_days": 55,
        "observations_used": 42,
        "orbit_uncertainty": "6",
        "minimum_orbit_intersection": ".112345",
        "jupiter_tisserand_invariant": "3.370",
        "epoch_osculation": "2459000.5",
        "eccentricity": ".5237996348325603",
        "semi_major_axis": "2.328455022360774",
        "inclination": "4.906214137786259",
        "ascending_node_longitude": "208.5425379482818",
        "orbital_period": "1297.777399683995",
        "perihelion_distance": "1.10881113192416",
        "perihelion_argument": "168.0230006741557",
        "aphelion_distance": "3.548098912797388",
        "perihelion_time": "2459371.241363930077",
        "mean_anomaly": "257.1573314134408",
        "mean_motion": ".2773973410907439",
        "equinox": "J2000",
        "orbit_class": {
            "orbit_class_type": "AMO",
            "orbit_class_description": "Near-Earth asteroid orbits similar to that of 1221 Amor",
            "orbit_class_range": "1.017 AU < q (perihelion) < 1.3 AU"
        }
    },
    "is_sentry_object": false
}